STARLINK-4609           
1 53619U 22104AH  22253.91667824 -.00034006  00000+0 -23884-3 0  9992
2 53619  53.2157 219.7401 0001310  74.0160  41.0290 15.73201099  1303
STARLINK-4615           
1 53620U 22104AJ  22253.91667824 -.00038056  00000+0 -26779-3 0  9999
2 53620  53.2159 219.7346 0001276  79.9495  38.0231 15.73214575  1305
STARLINK-4608           
1 53621U 22104AK  22253.91667824 -.00038991  00000+0 -27475-3 0  9992
2 53621  53.2161 219.7390 0001178  96.1598  20.1082 15.73194371  1301
STARLINK-4568           
1 53622U 22104AL  22253.91667824 -.00031193  00000+0 -21849-3 0  9999
2 53622  53.2155 219.7310 0001244  74.4605  44.7741 15.73218177  1304
STARLINK-4573           
1 53623U 22104AM  22253.91667824 -.00037333  00000+0 -26274-3 0  9999
2 53623  53.2159 219.7359 0001408  93.5862  23.8717 15.73201636  1304
STARLINK-4596           
1 53624U 22104AN  22253.91667824 -.00050436  00000+0 -35733-3 0  9999
2 53624  53.2162 219.7323 0000450  72.6260  47.1843 15.73186823  1305
STARLINK-4603           
1 53625U 22104AP  22253.91667824 -.00017104  00000+0 -11770-3 0  9990
2 53625  53.2161 219.7341 0001045  76.7020  41.9575 15.73200943  1309
STARLINK-4554           
1 53626U 22104AQ  22253.91667824 -.00011352  00000+0 -76488-4 0  9998
2 53626  53.2164 219.7294 0001133  80.1016  41.4617 15.73227744  1302
STARLINK-4595           
1 53627U 22104AR  22253.91667824 -.00014320  00000+0 -97780-4 0  9995
2 53627  53.2161 219.7306 0001179  81.4505  38.9832 15.73202720  1308
STARLINK-4600           
1 53628U 22104AS  22253.91667824 -.00012150  00000+0 -82200-4 0  9996
2 53628  53.2164 219.7270 0001120  82.2792  40.5042 15.73222561  1302
STARLINK-4602           
1 53629U 22104AT  22253.91667824  .00002767  00000+0  24123-4 0  9998
2 53629  53.2162 219.7295 0001043  75.8557  45.1747 15.73197398  1301
STARLINK-4598           
1 53630U 22104AU  22253.91667824  .00071408  00000+0  50952-3 0  9996
2 53630  53.2163 219.7250 0001423  88.3178  35.0468 15.73170650  1305
STARLINK-4599           
1 53631U 22104AV  22253.91667824 -.00025828  00000+0 -18010-3 0  9993
2 53631  53.2160 219.7267 0001132  83.8562  38.3319 15.73210116  1308
STARLINK-4606           
1 53632U 22104AW  22253.91667824  .00001745  00000+0  16836-4 0  9999
2 53632  53.2162 219.7230 0001127  78.8246  45.7753 15.73211329  1309
STARLINK-4593           
1 53633U 22104AX  22253.91667824 -.00034364  00000+0 -24131-3 0  9991
2 53633  53.2162 219.7234 0001258  81.9872  41.9986 15.73211636  1306
STARLINK-4592           
1 53634U 22104AY  22253.91667824 -.00098092  00000+0 -70135-3 0  9995
2 53634  53.2160 219.7192 0001175  76.0641  49.7379 15.73243825  1302
STARLINK-4587           
1 53635U 22104AZ  22253.91667824 -.00008036  00000+0 -52906-4 0  9992
2 53635  53.2155 219.7189 0001027  83.0418  42.1625 15.73195559  1300
STARLINK-4586           
1 53636U 22104BA  22253.91667824 -.00085690  00000+0 -61077-3 0  9992
2 53636  53.2162 219.7178 0001228  76.6130  50.3405 15.73260707  1304
STARLINK-4396           
1 53637U 22104BB  22253.91667824 -.00085766  00000+0 -61125-3 0  9991
2 53637  53.2165 219.7197 0001170  81.7882  44.5476 15.73263438  1303
STARLINK-4594           
1 53638U 22104BC  22253.91667824 -.00007088  00000+0 -46140-4 0  9994
2 53638  53.2161 219.7152 0001107  88.2761  39.8968 15.73196759  1303
STARLINK-4422           
1 53639U 22104BD  22253.91667824 -.00040278  00000+0 -28366-3 0  9992
2 53639  53.2164 219.7169 0001314  86.4382  41.0856 15.73222703  1304
STARLINK-4597           
1 53640U 22104BE  22253.91667824 -.00034958  00000+0 -24561-3 0  9995
2 53640  53.2159 219.7131 0001238  97.1404  31.6080 15.73207901  1305
STARLINK-4588           
1 53641U 22104BF  22253.91667824 -.00079298  00000+0 -56464-3 0  9999
2 53641  53.2164 219.7135 0001147  89.2774  40.0549 15.73253105  1308
FALCON 9 DEB            
1 53642U 22104BG  22253.80669478  .01262235  11662-4  83533-3 0  9997
2 53642  53.2168 218.4971 0047898  95.5941 265.0562 16.13554466  2209
FALCON 9 DEB            
1 53643U 22104BH  22253.80332108  .01208056  11663-4  81003-3 0  9997
2 53643  53.2118 218.4672 0045500  96.3588 264.2634 16.13646157  2207
FALCON 9 DEB            
1 53644U 22104BJ  22253.79311795  .01244530  11703-4  76490-3 0  9991
2 53644  53.2155 218.3914 0043155  89.7313 270.8670 16.15031228  2205
FALCON 9 DEB            
1 53645U 22104BK  22253.79050512  .01481274  11728-4  84897-3 0  9994
2 53645  53.2160 218.3730 0041785  90.4036 270.1790 16.16065749  2219
STARLINK-4622           
1 53648U 22105A   22253.91667824  .00037117  00000+0  30611-3 0  9995
2 53648  97.6563 131.8458 0001677 116.9996 143.4966 15.70270945  1303
STARLINK-4386           
1 53649U 22105B   22253.91667824  .00039715  00000+0  32802-3 0  9996
2 53649  97.6570 131.8451 0001597 127.1633 134.0043 15.70222531  1308
STARLINK-4380           
1 53650U 22105C   22253.91667824 -.00059268  00000+0 -49103-3 0  9997
2 53650  97.6564 131.8464 0001683 123.7041 137.9968 15.70297966  1300
STARLINK-4388           
1 53651U 22105D   22253.91667824  .00033745  00000+0  27860-3 0  9994
2 53651  97.6554 131.8456 0001777 127.4209 134.8485 15.70263081  1303
STARLINK-4374           
1 53652U 22105E   22253.91667824 -.00025189  00000+0 -20789-3 0  9993
2 53652  97.6552 131.8462 0001529 127.4895 135.3609 15.70220520  1300
STARLINK-4390           
1 53653U 22105F   22253.91667824 -.00054529  00000+0 -45180-3 0  9996
2 53653  97.6552 131.8459 0001827 120.4369 143.0829 15.70277444  1304
STARLINK-4420           
1 53654U 22105G   22253.91667824 -.00011933  00000+0 -97656-4 0  9995
2 53654  97.6553 131.8479 0001764 126.1159 139.1913 15.70244580  1303
STARLINK-4470           
1 53655U 22105H   22253.91667824  .00044341  00000+0  36592-3 0  9994
2 53655  97.6560 131.8468 0001550 125.2238 138.8632 15.70221087  1302
STARLINK-4466           
1 53656U 22105J   22253.91667824  .00038469  00000+0  31751-3 0  9991
2 53656  97.6554 131.8490 0001626 127.5924 138.7469 15.70245212  1305
STARLINK-4469           
1 53657U 22105K   22253.91667824  .00039506  00000+0  32651-3 0  9995
2 53657  97.6560 131.8474 0001653 124.2187 140.4703 15.70207107  1302
STARLINK-4452           
1 53658U 22105L   22253.91667824 -.00018088  00000+0 -14890-3 0  9995
2 53658  97.6555 131.8487 0001764 124.6215 142.4130 15.70211837  1301
STARLINK-4463           
1 53659U 22105M   22253.91667824  .00041043  00000+0  33887-3 0  9998
2 53659  97.6550 131.8485 0002089 121.8502 143.9842 15.70223360  1304
STARLINK-4473           
1 53660U 22105N   22253.91667824  .00041058  00000+0  33880-3 0  9999
2 53660  97.6565 131.8499 0001711 131.1661 137.7520 15.70237996  1302
STARLINK-4472           
1 53661U 22105P   22253.91667824 -.00046264  00000+0 -38290-3 0  9996
2 53661  97.6562 131.8489 0001677 120.4779 147.2434 15.70270225  1303
STARLINK-4357           
1 53662U 22105Q   22253.91667824  .00043291  00000+0  35695-3 0  9998
2 53662  97.6561 131.8517 0002299 121.9753 148.6778 15.70244691  1308
STARLINK-4457           
1 53663U 22105R   22253.91667824 -.00058567  00000+0 -48552-3 0  9999
2 53663  97.6562 131.8494 0001645 126.4692 141.7933 15.70280832  1304
STARLINK-4471           
1 53664U 22105S   22253.91667824  .00012759  00000+0  10633-3 0  9990
2 53664  97.6551 131.8519 0001454 126.1284 145.1420 15.70252512  1306
STARLINK-4334           
1 53665U 22105T   22253.91667824 -.00071858  00000+0 -59692-3 0  9996
2 53665  97.6554 131.8498 0001777 125.9465 143.4004 15.70279192  1304
STARLINK-4449           
1 53666U 22105U   22253.91667824  .00022146  00000+0  18354-3 0  9991
2 53666  97.6559 131.8522 0001759 129.1780 143.2669 15.70253584  1306
STARLINK-4406           
1 53667U 22105V   22253.91667824  .00001869  00000+0  16543-4 0  9990
2 53667  97.6552 131.8501 0001824 127.5676 142.4631 15.70220045  1302
STARLINK-4458           
1 53668U 22105W   22253.91667824 -.00062074  00000+0 -51410-3 0  9999
2 53668  97.6552 131.8531 0001853 124.8509 148.1309 15.70316129  1307
STARLINK-4464           
1 53669U 22105X   22253.91667824 -.00063231  00000+0 -52447-3 0  9997
2 53669  97.6567 131.8516 0001799 126.2265 145.6509 15.70284317  1308
STARLINK-4459           
1 53670U 22105Y   22253.91667824 -.00053408  00000+0 -44188-3 0  9997
2 53670  97.6549 131.8538 0002008 128.1722 146.0420 15.70307069  1304
STARLINK-4440           
1 53671U 22105Z   22253.91667824 -.00057166  00000+0 -47310-3 0  9993
2 53671  97.6551 131.8528 0001959 130.2267 143.3518 15.70315238  1304
STARLINK-4428           
1 53672U 22105AA  22253.91667824 -.00023929  00000+0 -19685-3 0  9998
2 53672  97.6560 131.8550 0001625 124.2005 151.7937 15.70288780  1302
STARLINK-4456           
1 53673U 22105AB  22253.91667824 -.00057337  00000+0 -47447-3 0  9996
2 53673  97.6566 131.8532 0001979 134.5942 140.1885 15.70318397  1307
STARLINK-4620           
1 53674U 22105AC  22253.91667824 -.00025386  00000+0 -20915-3 0  9997
2 53674  97.6566 131.8548 0001792 127.3920 149.8415 15.70263299  1309
STARLINK-4617           
1 53675U 22105AD  22253.91667824 -.00065585  00000+0 -54435-3 0  9997
2 53675  97.6556 131.8528 0002141 135.3534 140.0485 15.70276115  1307
STARLINK-4621           
1 53676U 22105AE  22253.91667824  .00036274  00000+0  29942-3 0  9994
2 53676  97.6562 131.8564 0001935 134.2885 144.0884 15.70253694  1306
STARLINK-4579           
1 53677U 22105AF  22253.91667824 -.00041042  00000+0 -33914-3 0  9990
2 53677  97.6556 131.8537 0001521 124.8330 151.7006 15.70285437  1302
STARLINK-4418           
1 53678U 22105AG  22253.91667824 -.00016142  00000+0 -13245-3 0  9999
2 53678  97.6559 131.8563 0001662 120.2675 159.2969 15.70263990  1304
STARLINK-4632           
1 53679U 22105AH  22253.91667824  .00040299  00000+0  33273-3 0  9991
2 53679  97.6565 131.8549 0001926 125.3135 152.5578 15.70227003  1303
